[
    {
        "Altitude(m)": 624792.7647846339,
        "Argument of Periapsis(deg)": 0.0,
        "Eccentricity": 0.0,
        "Inclination(deg)": 60.0,
        "Latitude(deg)": -59.14706547871325,
        "Longitude(deg)": 174.02622673302156,
        "Mean Anomaly(deg)": 261.8182,
        "RAAN(deg)": 20.0,
        "Satellite Name": "Test1 104",
        "Satellite Number": 104,
        "Semi-Major Axis(m)": 6980739.136638005,
        "Time(s)": 0
    },
    {
        "Altitude(m)": 624842.157523614,
        "Argument of Periapsis(deg)": 0.00010418945913296404,
        "Eccentricity": 0.0,
        "Inclination(deg)": 60.0,
        "Latitude(deg)": -59.289151152822505,
        "Longitude(deg)": 175.15572910817625,
        "Mean Anomaly(deg)": 262.43830614546187,
        "RAAN(deg)": 19.99957995086026,
        "Satellite Name": "Test1 104",
        "Satellite Number": 104,
        "Semi-Major Axis(m)": 6980739.136638005,
        "Time(s)": 10
    }
]